{"type": "FeatureCollection", "features": [ {"type": "Feature", "properties": {"norad_id": 32289, "name": "YAOGAN-3", "group": "resource", "lat": -46.52982273160724, "lon": 13.86684442375793, "alt_km": 605.9649121120128, "timestamp": "2025-12-04T19:33:59.287994+00:00", "meta": {"OBJECT_NAME": "YAOGAN-3", "OBJECT_ID": "2007-055A", "EPOCH": "2025-12-04T08:29:38.012352", "MEAN_MOTION": 14.89794259, "ECCENTRICITY": 0.0001512, "INCLINATION": 97.8371, "RA_OF_ASC_NODE": 5.0553, "ARG_OF_PERICENTER": 78.929, "MEAN_ANOMALY": 281.2098, "EPHEMERIS_TYPE": 0, "CLASSIFICATION_TYPE": "U", "NORAD_CAT_ID": 32289, "ELEMENT_SET_NO": 999, "REV_AT_EPOCH": 97684, "BSTAR": 0.00064691939, "MEAN_MOTION_DOT": 6.154e-05, "MEAN_MOTION_DDOT": 0}, "tle": {"line1": "1 32289U 07055A   25338.35391218  .00006154  00000+0  64692-3 0  9999", "line2": "2 32289  97.8371   5.0553 0001512  78.9290 281.2098 14.89794259976845"}}, "geometry": {"type": "Point", "coordinates": [13.86684442375793, -46.52982273160724]}}, {"type": "Feature", "properties": {"norad_id": 32376, "name": "COSMO-SKYMED 2", "group": "resource", "lat": 82.09372325276789, "lon": 66.11215693451881, "alt_km": 613.9893483837095, "timestamp": "2025-12-04T19:33:59.288004+00:00", "meta": {"OBJECT_NAME": "COSMO-SKYMED 2", "OBJECT_ID": "2007-059A", "EPOCH": "2025-12-04T07:49:03.641376", "MEAN_MOTION": 14.8215064, "ECCENTRICITY": 0.00015512, "INCLINATION": 97.8806, "RA_OF_ASC_NODE": 159.776, "ARG_OF_PERICENTER": 88.0855, "MEAN_ANOMALY": 272.0536, "EPHEMERIS_TYPE": 0, "CLASSIFICATION_TYPE": "U", "NORAD_CAT_ID": 32376, "ELEMENT_SET_NO": 999, "REV_AT_EPOCH": 97313, "BSTAR": 0.00017549452, "MEAN_MOTION_DOT": 1.345e-05, "MEAN_MOTION_DDOT": 0}, "tle": {"line1": "1 32376U 07059A   25338.32573659  .00001345  00000+0  17549-3 0  9994", "line2": "2 32376  97.8806 159.7760 0001551  88.0855 272.0536 14.82150640973131"}}, "geometry": {"type": "Point", "coordinates": [66.11215693451881, 82.09372325276789]}}, {"type": "Feature", "properties": {"norad_id": 32382, "name": "RADARSAT-2", "group": "resource", "lat": 80.26044989575777, "lon": -78.07090269552761, "alt_km": 783.5919802116423, "timestamp": "2025-12-04T19:33:59.288014+00:00", "meta": {"OBJECT_NAME": "RADARSAT-2", "OBJECT_ID": "2007-061A", "EPOCH": "2025-12-04T07:24:49.146624", "MEAN_MOTION": 14.29984147, "ECCENTRICITY": 0.00010779, "INCLINATION": 98.5799, "RA_OF_ASC_NODE": 343.0216, "ARG_OF_PERICENTER": 90.2955, "MEAN_ANOMALY": 269.8351, "EPHEMERIS_TYPE": 0, "CLASSIFICATION_TYPE": "U", "NORAD_CAT_ID": 32382, "ELEMENT_SET_NO": 999, "REV_AT_EPOCH": 93810, "BSTAR": 8.3544651e-05, "MEAN_MOTION_DOT": 1.72e-06, "MEAN_MOTION_DDOT": 0}, "tle": {"line1": "1 32382U 07061A   25338.30890216  .00000172  00000+0  83545-4 0  9990", "line2": "2 32382  98.5799 343.0216 0001077  90.2955 269.8351 14.29984147938105"}}, "geometry": {"type": "Point", "coordinates": [-78.07090269552761, 80.26044989575777]}}, {"type": "Feature", "properties": {"norad_id": 32783, "name": "CARTOSAT-2A", "group": "resource", "lat": -37.422644263844745, "lon": 34.90226026018596, "alt_km": 635.7668359138033, "timestamp": "2025-12-04T19:33:59.288024+00:00", "meta": {"OBJECT_NAME": "CARTOSAT-2A", "OBJECT_ID": "2008-021A", "EPOCH": "2025-12-04T06:44:47.478048", "MEAN_MOTION": 14.78913201, "ECCENTRICITY": 0.00124318, "INCLINATION": 97.7943, "RA_OF_ASC_NODE": 28.3685, "ARG_OF_PERICENTER": 31.1369, "MEAN_ANOMALY": 329.0577, "EPHEMERIS_TYPE": 0, "CLASSIFICATION_TYPE": "U", "NORAD_CAT_ID": 32783, "ELEMENT_SET_NO": 999, "REV_AT_EPOCH": 94999, "BSTAR": 0.00025134086, "MEAN_MOTION_DOT": 1.805e-05, "MEAN_MOTION_DDOT": 0}, "tle": {"line1": "1 32783U 08021A   25338.28110507  .00001805  00000+0  25134-3 0  9990", "line2": "2 32783  97.7943  28.3685 0012431  31.1369 329.0577 14.78913201949999"}}, "geometry": {"type": "Point", "coordinates": [34.90226026018596, -37.422644263844745]}}, {"type": "Feature", "properties": {"norad_id": 33320, "name": "HUANJING 1A (HJ-1A)", "group": "resource", "lat": 60.16853173515807, "lon": -46.116292907573076, "alt_km": 598.5118139520491, "timestamp": "2025-12-04T19:33:59.288033+00:00", "meta": {"OBJECT_NAME": "HUANJING 1A (HJ-1A)", "OBJECT_ID": "2008-041A", "EPOCH": "2025-12-04T07:57:37.473408", "MEAN_MOTION": 14.83353044, "ECCENTRICITY": 0.00206157, "INCLINATION": 97.6532, "RA_OF_ASC_NODE": 326.9819, "ARG_OF_PERICENTER": 60.5494, "MEAN_ANOMALY": 299.7774, "EPHEMERIS_TYPE": 0, "CLASSIFICATION_TYPE": "U", "NORAD_CAT_ID": 33320, "ELEMENT_SET_NO": 999, "REV_AT_EPOCH": 92951, "BSTAR": 0.00042238216, "MEAN_MOTION_DOT": 3.424e-05, "MEAN_MOTION_DDOT": 0}, "tle": {"line1": "1 33320U 08041A   25338.33168372  .00003424  00000+0  42238-3 0  9992", "line2": "2 33320  97.6532 326.9819 0020615  60.5494 299.7774 14.83353044929511"}}, "geometry": {"type": "Point", "coordinates": [-46.116292907573076, 60.16853173515807]}}, {"type": "Feature", "properties": {"norad_id": 33321, "name": "HUANJING 1B (HJ-1B)", "group": "resource", "lat": -60.78608391171422, "lon": -14.949061984474636, "alt_km": 653.1618197612534, "timestamp": "2025-12-04T19:33:59.288042+00:00", "meta": {"OBJECT_NAME": "HUANJING 1B (HJ-1B)", "OBJECT_ID": "2008-041B", "EPOCH": "2025-12-04T06:53:21.063840", "MEAN_MOTION": 14.8278785, "ECCENTRICITY": 0.00381676, "INCLINATION": 97.6396, "RA_OF_ASC_NODE": 330.6581, "ARG_OF_PERICENTER": 102.4885, "MEAN_ANOMALY": 258.0604, "EPHEMERIS_TYPE": 0, "CLASSIFICATION_TYPE": "U", "NORAD_CAT_ID": 33321, "ELEMENT_SET_NO": 999, "REV_AT_EPOCH": 92952, "BSTAR": 0.00028057516, "MEAN_MOTION_DOT": 2.246e-05, "MEAN_MOTION_DDOT": 0}, "tle": {"line1": "1 33321U 08041B   25338.28704935  .00002246  00000+0  28058-3 0  9993", "line2": "2 33321  97.6396 330.6581 0038167 102.4885 258.0604 14.82787850929525"}}, "geometry": {"type": "Point", "coordinates": [-14.949061984474636, -60.78608391171422]}}, {"type": "Feature", "properties": {"norad_id": 33331, "name": "GEOEYE 1", "group": "resource", "lat": 74.8375143188667, "lon": 18.374202340633502, "alt_km": 671.7967496931315, "timestamp": "2025-12-04T19:33:59.288052+00:00", "meta": {"OBJECT_NAME": "GEOEYE 1", "OBJECT_ID": "2008-042A", "EPOCH": "2025-12-04T07:44:22.252992", "MEAN_MOTION": 14.64795233, "ECCENTRICITY": 0.00029474, "INCLINATION": 98.1262, "RA_OF_ASC_NODE": 49.708, "ARG_OF_PERICENTER": 313.5499, "MEAN_ANOMALY": 46.5459, "EPHEMERIS_TYPE": 0, "CLASSIFICATION_TYPE": "U", "NORAD_CAT_ID": 33331, "ELEMENT_SET_NO": 999, "REV_AT_EPOCH": 92162, "BSTAR": 0.00024921373, "MEAN_MOTION_DOT": 1.282e-05, "MEAN_MOTION_DDOT": 0}, "tle": {"line1": "1 33331U 08042A   25338.32247978  .00001282  00000+0  24921-3 0  9993", "line2": "2 33331  98.1262  49.7080 0002947 313.5499  46.5459 14.64795233921624"}}, "geometry": {"type": "Point", "coordinates": [18.374202340633502, 74.8375143188667]}}, {"type": "Feature", "properties": {"norad_id": 33396, "name": "THEOS", "group": "resource", "lat": 51.7294068976919, "lon": -131.81846894568974, "alt_km": 819.5036764545839, "timestamp": "2025-12-04T19:33:59.288062+00:00", "meta": {"OBJECT_NAME": "THEOS", "OBJECT_ID": "2008-049A", "EPOCH": "2025-12-04T08:49:22.452672", "MEAN_MOTION": 14.20093767, "ECCENTRICITY": 0.00010976, "INCLINATION": 98.588, "RA_OF_ASC_NODE": 36.7038, "ARG_OF_PERICENTER": 100.2721, "MEAN_ANOMALY": 259.858, "EPHEMERIS_TYPE": 0, "CLASSIFICATION_TYPE": "U", "NORAD_CAT_ID": 33396, "ELEMENT_SET_NO": 999, "REV_AT_EPOCH": 89031, "BSTAR": 9.9166156e-05, "MEAN_MOTION_DOT": 1.69e-06, "MEAN_MOTION_DDOT": 0}, "tle": {"line1": "1 33396U 08049A   25338.36762098  .00000169  00000+0  99166-4 0  9997", "line2": "2 33396  98.5880  36.7038 0001097 100.2721 259.8580 14.20093767890318"}}, "geometry": {"type": "Point", "coordinates": [-131.81846894568974, 51.7294068976919]}}, {"type": "Feature", "properties": {"norad_id": 33412, "name": "COSMO-SKYMED 3", "group": "resource", "lat": -51.25356313811697, "lon": -161.03132170278886, "alt_km": 560.9894191979538, "timestamp": "2025-12-04T19:33:59.288071+00:00", "meta": {"OBJECT_NAME": "COSMO-SKYMED 3", "OBJECT_ID": "2008-054A", "EPOCH": "2025-12-04T07:02:01.723200", "MEAN_MOTION": 15.05228782, "ECCENTRICITY": 0.0015514, "INCLINATION": 97.8463, "RA_OF_ASC_NODE": 188.543, "ARG_OF_PERICENTER": 202.2011, "MEAN_ANOMALY": 157.8545, "EPHEMERIS_TYPE": 0, "CLASSIFICATION_TYPE": "U", "NORAD_CAT_ID": 33412, "ELEMENT_SET_NO": 999, "REV_AT_EPOCH": 92760, "BSTAR": 0.00071894076, "MEAN_MOTION_DOT": 0.00010235, "MEAN_MOTION_DDOT": 0}, "tle": {"line1": "1 33412U 08054A   25338.29307550  .00010235  00000+0  71894-3 0  9994", "line2": "2 33412  97.8463 188.5430 0015514 202.2011 157.8545 15.05228782927604"}}, "geometry": {"type": "Point", "coordinates": [-161.03132170278886, -51.25356313811697]}}, {"type": "Feature", "properties": {"norad_id": 33446, "name": "YAOGAN-4", "group": "resource", "lat": -33.58510849350136, "lon": 83.69093214466028, "alt_km": 634.4006815637786, "timestamp": "2025-12-04T19:33:59.288081+00:00", "meta": {"OBJECT_NAME": "YAOGAN-4", "OBJECT_ID": "2008-061A", "EPOCH": "2025-12-04T05:38:47.404896", "MEAN_MOTION": 14.82640914, "ECCENTRICITY": 0.00143182, "INCLINATION": 97.9169, "RA_OF_ASC_NODE": 268.4187, "ARG_OF_PERICENTER": 351.7897, "MEAN_ANOMALY": 8.3079, "EPHEMERIS_TYPE": 0, "CLASSIFICATION_TYPE": "U", "NORAD_CAT_ID": 33446, "ELEMENT_SET_NO": 999, "REV_AT_EPOCH": 91677, "BSTAR": 0.00043161091, "MEAN_MOTION_DOT": 3.43e-05, "MEAN_MOTION_DDOT": 0}, "tle": {"line1": "1 33446U 08061A   25338.23527089  .00003430  00000+0  43161-3 0  9999", "line2": "2 33446  97.9169 268.4187 0014318 351.7897   8.3079 14.82640914916772"}}, "geometry": {"type": "Point", "coordinates": [83.69093214466028, -33.58510849350136]}}]}